ORBCOMM FM20            
1 25416U 98046D   24295.33810181  .00002643  00000+0  94808-3 0  9998
2 25416  44.9933 231.5501 0001118 334.7756  25.3037 14.36076343369910
ORBCOMM FM16            
1 25417U 98046E   24295.30915003  .00003529  00000+0  12174-2 0  9994
2 25417  44.9931 226.0584 0002591 178.5706 181.5149 14.37370225369864
ORBCOMM FM15            
1 25418U 98046F   24295.16040746  .00003478  00000+0  12083-2 0  9994
2 25418  44.9962 231.2348 0002185 185.3360 174.7464 14.37047268369846
ORBCOMM FM14            
1 25419U 98046G   24295.23084555  .00003496  00000+0  12082-2 0  9998
2 25419  44.9952 229.7410 0001015 164.7614 195.3264 14.37304663369811
ORBCOMM FM13            
1 25420U 98046H   24295.29875914  .00003085  00000+0  10919-2 0  9994
2 25420  44.9966 235.3208 0003147 157.3339 202.7648 14.36374242368879
ORBCOMM FM21            
1 25475U 98053A   24295.40185826  .00002824  00000+0  10070-2 0  9999
2 25475  45.0084 319.4451 0001455 274.6375  85.4307 14.36201084362908
ORBCOMM FM22            
1 25476U 98053B   24295.37998282  .00003077  00000+0  10774-2 0  9996
2 25476  45.0078 316.0669 0000236  58.2436 301.8435 14.36914164362903
ORBCOMM FM23            
1 25477U 98053C   24295.49402064  .00002948  00000+0  10479-2 0  9996
2 25477  45.0086 321.3746 0000504 279.3401  80.7390 14.36265900363062
